COMMENT,ORIGINATOR,NORAD_CAT_ID,OBJECT_NAME,OBJECT_TYPE,CLASSIFICATION_TYPE,INTLDES,EPOCH,EPOCH_MICROSECONDS,MEAN_MOTION,ECCENTRICITY,INCLINATION,RA_OF_ASC_NODE,ARG_OF_PERICENTER,MEAN_ANOMALY,EPHEMERIS_TYPE,ELEMENT_SET_NO,REV_AT_EPOCH,BSTAR,MEAN_MOTION_DOT,MEAN_MOTION_DDOT,FILE,TLE_LINE0,TLE_LINE1,TLE_LINE2,OBJECT_ID,OBJECT_NUMBER,SEMIMAJOR_AXIS,PERIOD,APOGEE,PERIGEE,DECAYED
"GENERATED VIA SPACETRACK.ORG API","18 SPCS","47950","OBJECT U","TBA","U","21022U","2021-10-13 19:06:16","644672","15.0595618","0.0020183","97.5425","186.4531","270.3613","89.5315","0","999","3086","0.00018332","0.00002618","0","3161149","0 OBJECT U","1 47950U 21022U   21286.79602598  .00002618  00000-0  18332-3 0  9994","2 47950  97.5425 186.4531 0020183 270.3613  89.5315 15.05956180 30861","2021-022U","47950","6926.709","95.620","562.554","534.594","0"
"GENERATED VIA SPACETRACK.ORG API","18 SPCS","47950","OBJECT U","TBA","U","21022U","2021-10-14 04:40:21","556416","15.05958934","0.0020178","97.5426","186.8434","268.8839","91.0112","0","999","3092","0.0001878","0.00002684","0","3161604","0 OBJECT U","1 47950U 21022U   21287.19469394  .00002684  00000-0  18780-3 0  9994","2 47950  97.5426 186.8434 0020178 268.8839  91.0112 15.05958934 30923","2021-022U","47950","6926.701","95.620","562.542","534.589","0"
"GENERATED VIA SPACETRACK.ORG API","18 SPCS","47950","OBJECT U","TBA","U","21022U","2021-10-14 12:38:45","587328","15.05961051","0.0020134","97.5428","187.1687","267.506","92.3885","0","999","3097","0.00019058","0.00002724","0","3161855","0 OBJECT U","1 47950U 21022U   21287.52691652  .00002724  00000-0  19058-3 0  9999","2 47950  97.5428 187.1687 0020134 267.5060  92.3885 15.05961051 30973","2021-022U","47950","6926.694","95.620","562.505","534.613","0"
"GENERATED VIA SPACETRACK.ORG API","18 SPCS","47950","OBJECT U","TBA","U","21022U","2021-10-14 15:50:07","171008","15.05961899","0.0020117","97.5428","187.2988","267.1305","92.7618","0","999","3099","0.0001918","0.00002742","0","3162336","0 OBJECT U","1 47950U 21022U   21287.65980522  .00002742  00000-0  19180-3 0  9996","2 47950  97.5428 187.2988 0020117 267.1305  92.7618 15.05961899 30997","2021-022U","47950","6926.692","95.620","562.491","534.622","0"
"GENERATED VIA SPACETRACK.ORG API","18 SPCS","47950","OBJECT U","TBA","U","21022U","2021-10-14 19:01:28","786656","15.05962764","0.0020126","97.5426","187.4288","266.5579","93.3357","0","999","3101","0.00019281","0.00002757","0","3163036","0 OBJECT U","1 47950U 21022U   21287.79269429  .00002757  00000-0  19281-3 0  9995","2 47950  97.5426 187.4288 0020126 266.5579  93.3357 15.05962764 31019","2021-022U","47950","6926.689","95.620","562.495","534.613","0"
"GENERATED VIA SPACETRACK.ORG API","18 SPCS","47950","OBJECT U","TBA","U","21022U","2021-10-15 04:35:33","573120","15.05965149","0.0020122","97.5428","187.819","265.1164","94.7777","0","999","3107","0.00019382","0.00002772","0","3163583","0 OBJECT U","1 47950U 21022U   21288.19136080  .00002772  00000-0  19382-3 0  9995","2 47950  97.5428 187.8190 0020122 265.1164  94.7777 15.05965149 31075","2021-022U","47950","6926.682","95.620","562.485","534.609","0"
"GENERATED VIA SPACETRACK.ORG API","18 SPCS","47950","OBJECT U","TBA","U","21022U","2021-10-15 12:33:57","538368","15.05966884","0.002009","97.5429","188.1442","263.7313","96.1621","0","999","3112","0.0001936","0.00002769","0","3164185","0 OBJECT U","1 47950U 21022U   21288.52358262  .00002769  00000-0  19360-3 0  9992","2 47950  97.5429 188.1442 0020090 263.7313  96.1621 15.05966884 31121","2021-022U","47950","6926.676","95.620","562.457","534.626","0"
"GENERATED VIA SPACETRACK.ORG API","18 SPCS","47950","OBJECT U","TBA","U","21022U","2021-10-15 12:33:57","538368","15.05966884","0.002009","97.5429","188.1442","263.7313","96.1621","0","999","3112","0.0001936","0.00002769","0","3164360","0 OBJECT U","1 47950U 21022U   21288.52358262  .00002769  00000-0  19360-3 0  9992","2 47950  97.5429 188.1442 0020090 263.7313  96.1621 15.05966884 31121","2021-022U","47950","6926.676","95.620","562.457","534.626","0"
"GENERATED VIA SPACETRACK.ORG API","18 SPCS","47950","OBJECT U","TBA","U","21022U","2021-10-15 20:32:21","473376","15.05968841","0.0020033","97.5428","188.4692","262.7201","97.1733","0","999","3117","0.0001948","0.00002787","0","3165056","0 OBJECT U","1 47950U 21022U   21288.85580409  .00002787  00000-0  19480-3 0  9991","2 47950  97.5428 188.4692 0020033 262.7201  97.1733 15.05968841 31177","2021-022U","47950","6926.670","95.620","562.412","534.659","0"
"GENERATED VIA SPACETRACK.ORG API","18 SPCS","47950","OBJECT U","TBA","U","21022U","2021-10-15 20:32:21","473376","15.05968841","0.0020033","97.5428","188.4692","262.7201","97.1733","0","999","3117","0.0001948","0.00002787","0","3165217","0 OBJECT U","1 47950U 21022U   21288.85580409  .00002787  00000-0  19480-3 0  9991","2 47950  97.5428 188.4692 0020033 262.7201  97.1733 15.05968841 31177","2021-022U","47950","6926.670","95.620","562.412","534.659","0"
"GENERATED VIA SPACETRACK.ORG API","18 SPCS","47950","OBJECT U","TBA","U","21022U","2021-10-16 04:30:45","416160","15.05970384","0.0020038","97.5429","188.7945","261.4947","98.3999","0","999","3122","0.00019239","0.00002751","0","3165624","0 OBJECT U","1 47950U 21022U   21289.18802565  .00002751  00000-0  19239-3 0  9991","2 47950  97.5429 188.7945 0020038 261.4947  98.3999 15.05970384 31228","2021-022U","47950","6926.666","95.619","562.410","534.651","0"
"GENERATED VIA SPACETRACK.ORG API","18 SPCS","47950","OBJECT U","TBA","U","21022U","2021-10-16 04:30:45","416160","15.05970384","0.0020038","97.5429","188.7945","261.4947","98.3999","0","999","3122","0.00019239","0.00002751","0","3166151","0 OBJECT U","1 47950U 21022U   21289.18802565  .00002751  00000-0  19239-3 0  9991","2 47950  97.5429 188.7945 0020038 261.4947  98.3999 15.05970384 31228","2021-022U","47950","6926.666","95.619","562.410","534.651","0"
"GENERATED VIA SPACETRACK.ORG API","18 SPCS","47950","OBJECT U","TBA","U","21022U","2021-10-16 12:29:09","344256","15.05971601","0.0020037","97.5432","189.1199","260.1619","99.7326","0","999","3127","0.00018816","0.0000269","0","3165922","0 OBJECT U","1 47950U 21022U   21289.52024704  .00002690  00000-0  18816-3 0  9992","2 47950  97.5432 189.1199 0020037 260.1619  99.7326 15.05971601 31276","2021-022U","47950","6926.662","95.619","562.406","534.648","0"
"GENERATED VIA SPACETRACK.ORG API","18 SPCS","47950","OBJECT U","TBA","U","21022U","2021-10-16 12:29:09","344256","15.05971601","0.0020037","97.5432","189.1199","260.1619","99.7326","0","999","3127","0.00018816","0.0000269","0","3166610","0 OBJECT U","1 47950U 21022U   21289.52024704  .00002690  00000-0  18816-3 0  9992","2 47950  97.5432 189.1199 0020037 260.1619  99.7326 15.05971601 31276","2021-022U","47950","6926.662","95.619","562.406","534.648","0"
"GENERATED VIA SPACETRACK.ORG API","18 SPCS","47950","OBJECT U","TBA","U","21022U","2021-10-16 20:27:33","247296","15.05972959","0.0020005","97.5431","189.445","258.8969","100.9991","0","999","3132","0.00018456","0.00002637","0","3166505","0 OBJECT U","1 47950U 21022U   21289.85246814  .00002637  00000-0  18456-3 0  9997","2 47950  97.5431 189.4450 0020005 258.8969 100.9991 15.05972959 31321","2021-022U","47950","6926.658","95.619","562.379","534.666","0"
"GENERATED VIA SPACETRACK.ORG API","18 SPCS","47950","OBJECT U","TBA","U","21022U","2021-10-17 04:25:57","152064","15.05974027","0.0019981","97.543","189.7701","257.7904","102.1064","0","999","3137","0.00017915","0.00002558","0","3166760","0 OBJECT U","1 47950U 21022U   21290.18468926  .00002558  00000-0  17915-3 0  9996","2 47950  97.5430 189.7701 0019981 257.7904 102.1064 15.05974027 31378","2021-022U","47950","6926.654","95.619","562.360","534.679","0"
"GENERATED VIA SPACETRACK.ORG API","18 SPCS","47950","OBJECT U","TBA","U","21022U","2021-10-17 04:25:57","152064","15.05974027","0.0019981","97.543","189.7701","257.7904","102.1064","0","999","3137","0.00017915","0.00002558","0","3167949","0 OBJECT U","1 47950U 21022U   21290.18468926  .00002558  00000-0  17915-3 0  9996","2 47950  97.5430 189.7701 0019981 257.7904 102.1064 15.05974027 31378","2021-022U","47950","6926.654","95.619","562.360","534.679","0"
"GENERATED VIA SPACETRACK.ORG API","18 SPCS","47950","OBJECT U","TBA","U","21022U","2021-10-17 12:24:21","34368","15.05974653","0.0020005","97.5432","190.0955","256.4012","103.4945","0","999","3142","0.0001711","0.0000244","0","3167537","0 OBJECT U","1 47950U 21022U   21290.51691012  .00002440  00000-0  17110-3 0  9994","2 47950  97.5432 190.0955 0020005 256.4012 103.4945 15.05974653 31424","2021-022U","47950","6926.652","95.619","562.374","534.661","0"
"GENERATED VIA SPACETRACK.ORG API","18 SPCS","47950","OBJECT U","TBA","U","21022U","2021-10-17 20:22:44","927040","15.05975357","0.0019945","97.543","190.4207","255.2916","104.6055","0","999","3147","0.00016296","0.00002321","0","3168387","0 OBJECT U","1 47950U 21022U   21290.84913110  .00002321  00000-0  16296-3 0  9998","2 47950  97.5430 190.4207 0019945 255.2916 104.6055 15.05975357 31479","2021-022U","47950","6926.650","95.619","562.331","534.700","0"
"GENERATED VIA SPACETRACK.ORG API","18 SPCS","47950","OBJECT U","TBA","U","21022U","2021-10-17 20:22:44","927040","15.05975357","0.0019945","97.543","190.4207","255.2916","104.6055","0","999","3147","0.00016296","0.00002321","0","3168566","0 OBJECT U","1 47950U 21022U   21290.84913110  .00002321  00000-0  16296-3 0  9998","2 47950  97.5430 190.4207 0019945 255.2916 104.6055 15.05975357 31479","2021-022U","47950","6926.650","95.619","562.331","534.700","0"
